#cP2020  7 19  0  0  0.00000000      96 ORBIT IGb14 HLM  IGS
## 2115      0.00000000   900.00000000 59049 0.0000000000000
+   32   G01G02G03G04G05G06G07G08G09G10G11G12G13G14G15G16G17
+        G18G19G20G21G22G23G24G25G26G27G28G29G30G31G32  0  0
+          0  0  0  0  0  0  0  0  0  0  0  0  0  0  0  0  0
+          0  0  0  0  0  0  0  0  0  0  0  0  0  0  0  0  0
+          0  0  0  0  0  0  0  0  0  0  0  0  0  0  0  0  0
++         2  2  2  2  2  1  1  2  1  2  2  2  1  1  1  2  2
++         2  2  2  1  2  4  1  2  2  2  2  2  1  1  1  0  0
++         0  0  0  0  0  0  0  0  0  0  0  0  0  0  0  0  0
++         0  0  0  0  0  0  0  0  0  0  0  0  0  0  0  0  0
++         0  0  0  0  0  0  0  0  0  0  0  0  0  0  0  0  0
%c G  cc GPS ccc cccc cccc cccc cccc ccccc ccccc ccccc ccccc
%c cc cc ccc ccc cccc cccc cccc cccc ccccc ccccc ccccc ccccc
%f  1.2500000  1.025000000  0.00000000000  0.000000000000000
%f  0.0000000  0.000000000  0.00000000000  0.000000000000000
%i    0    0    0    0      0      0      0      0         0
%i    0    0    0    0      0      0      0      0         0
/* FINAL ORBIT COMBINATION FROM WEIGHTED AVERAGE OF:        
/* cod emr esa gfz grg jpl mit ngs sio                      
/* REFERENCED TO IGS TIME (IGST) AND TO WEIGHTED MEAN POLE: 
/* PCV:IGS14_2114 OL/AL:FES2004  NONE     Y  ORB:CMB CLK:CMB
*  2020  7 19 21 45  0.00000000
PG01  -7092.740149  17840.983112 -18435.390070     27.110069  5  5  4  89       
PG02  21977.064251 -14867.361111    886.446923   -489.744099  5  3  2  54       
PG03   3602.884907  17874.808304 -19421.640520   -244.786118  4  3  6  96       
PG04   -219.170041  26485.277787   1730.473493   -114.468971  2  6  3  78       
PG05  16343.474179  -6839.007628  19703.144946    -17.015766  6  3  7 118       
PG06  23668.621153  -4430.703128 -11202.696889   -305.243756  4  4  4  89       
PG07  11611.923409  11139.706037  21510.489612   -331.050344  5  3  3 108       
PG08  -6776.306502  23651.822922   9675.147341    -41.542416  4  6  4  95       
PG09   8555.556358  21948.432419  12204.061049   -256.428617  4  3  3 102       
PG10 -23883.441534 -11198.599735  -3986.497564   -404.288407  8  4  2  74       
PG11 -10367.067971  23931.327402  -6365.981132   -216.500760  5  3  4  64       
PG12  -2106.805882 -17856.299951 -19834.777326     91.576621  6  5  2 114       
PG13  13017.938005 -17568.182827  14887.275170     28.202778  5  4  6 110       
PG14 -15213.181781   2712.353703 -21228.811868      2.602268  4  3  2 118       
PG15   4288.008227 -24483.427897   8490.347997   -216.417948  5  1  6  96       
PG16 -14528.812305   6873.500153  21014.153709   -184.839932  7  6  7 113       
PG17  13623.899453   7094.732271 -21253.723889    298.406071  5  4  4  97       
PG18 -11213.517286 -10941.659366  21438.761306    250.291919  6  3  3  94       
PG19  15073.522913  -1469.481285 -22115.632156   -129.816520  6  6  2  94       
PG20 -20375.319806 -15246.203811   7927.754445    527.248641  7  7  4  87       
PG21 -22862.551258   3120.981212  13665.853689     25.667101  2  3  4  83       
PG22  -4270.005355  15343.532483 -21062.545425   -770.858908  4  5  6  72       
PG23 -20585.456415 -15964.008438   5151.903537      8.878073 13 14 10           
PG24   8241.898730 -19340.686277 -16209.034942    -15.902890  4  4  3  78       
PG25 -13030.008363 -19000.481972 -13679.041881     25.191760  4  4  5 104       
PG26 -23072.123288  -2033.613843  13164.726525    246.314381  6  5  4  87       
PG27 -12259.630012  15166.932833  17726.210885   -350.045502  2  5  4 112       
PG28  22649.295534  12450.242780  -5180.159611    697.962458  7  7  4  83       
PG29  -3753.717479 -24661.199428   9021.792398   -153.994190  7  4  4  72       
PG30  20374.759620   3522.854643  16837.368873   -265.385597  3  4  4  99       
PG31 -24552.978833   5161.291661  -9424.744833    -56.690296  4  5  5  92       
PG32 -14879.300499  -5593.224207 -21212.654771    319.662246  3  5  5  87       
*  2020  7 19 22  0  0.00000000
PG01  -8865.865144  18719.431860 -16661.724780     27.113335  4  4  4  75       
PG02  22019.299379 -14575.555393  -1969.233122   -489.749330  5  3  2  68       
PG03   1581.003344  16839.187120 -20577.362615   -244.796496  4  3  6  84       
PG04   -481.056803  26513.136223  -1125.004504   -114.473142  1  6  4  84       
PG05  18239.861203  -5711.579322  18380.282851    -17.016563  5  4  6 124       
PG06  22529.089379  -3565.104783 -13591.545461   -305.248179  5  4  4  87       
PG07   9529.444915  12355.039614  21828.858015   -331.057981  5  3  3 109       
PG08  -7027.321439  22402.498853  12174.687518    -41.544067  3  6  4 108       
PG09   8347.439817  23219.851455   9759.294414   -256.434292  4  2  3 113       
PG10 -24039.334542 -11537.330439  -1153.217824   -404.297987  8  4  2  62       
PG11 -10940.517058  24185.574109  -3706.613840   -216.490919  5  3  5  77       
PG12   -166.704603 -16659.889835 -20955.216263     91.572205  6  5  2 105       
PG13  12973.440045 -15722.710618  16853.518965     28.206167  5  4  6 110       
PG14 -15072.531288    193.057587 -21511.584334      2.605069  5  3  2 113       
PG15   4765.711057 -23359.591928  10982.613983   -216.415675  5  2  6 109       
PG16 -16457.278318   5481.105950  20026.759106   -184.844095  7  6  7  64       
PG17  13449.235287   9554.808675 -20404.969681    298.411091  5  4  4  84       
PG18  -9068.362257 -12175.078590  21782.720418    250.300302  6  2  2  90       
PG19  14859.195428    991.251595 -22292.988310   -129.811885  5  6  3  86       
PG20 -19287.260240 -15117.670914  10446.287462    527.248630  7  7  4  89       
PG21 -21674.765655   2059.258483  15783.044283     25.671228  3  2  4  96       
PG22  -6524.480923  14334.015809 -21181.219538   -770.856287  4  5  6  93       
PG23 -19810.368465 -15826.731202   7877.698267      8.892964 13 14 10  31       
PG24   9810.621576 -20109.183131 -14223.219066    -15.903157  4  4  2  91       
PG25 -11524.909101 -18333.278986 -15790.151384     25.195668  4  3  5 102       
PG26 -24185.027595  -2870.336863  10828.539968    246.320537  6  5  4  86       
PG27 -12416.164597  13017.242311  19276.346731   -350.054128  2  5  4 119       
PG28  22930.303949  12915.544005  -2325.565673    697.959486  6  6  3  96       
PG29  -3525.728846 -25529.948505   6296.158292   -154.001945  7  3  4  94       
PG30  18695.451701   4637.326543  18424.881113   -265.392477  3  4  4 100       
PG31 -23601.519971   4402.613569 -11884.986293    -56.692698  4  6  5  83       
PG32 -14857.684486  -7994.929203 -20461.391039    319.667752  3  5  5 117       
*  2020  7 19 22 15  0.00000000
PG01 -10410.773923  19574.762154 -14602.075007     27.116577  4  4  4  77       
PG02  21824.871706 -14083.017066  -4790.647735   -489.754486  5  3  1  60       
PG03   -593.221352  15864.155803 -21382.019861   -244.806833  5  4  6 105       
PG04   -753.330065  26232.292543  -3961.077838   -114.477258  1  6  4  71       
PG05  20036.071591  -4752.510717  16739.574863    -17.017193  5  4  6 108       
PG06  21225.291356  -2492.774516 -15746.263555   -305.252666  5  4  4  86       
PG07   7496.204384  13687.545593  21782.891143   -331.065630  5  3  3 111       
PG08  -7366.966289  20897.403123  14462.029666    -41.545625  2  5  4 109       
PG09   8179.915856  24214.577654   7146.072697   -256.440048  3  2  3 103       
PG10 -23925.089610 -11727.014016   1699.637112   -404.307499  8  3  2  64       
PG11 -11359.634802  24203.506231   -985.197884   -216.481642  5  4  5  76       
PG12   1929.026059 -15520.104121 -21723.517223     91.567802  7  5  2  97       
PG13  13014.582814 -13670.341312  18526.074928     28.208934  5  4  6  93       
PG14 -15060.282305  -2338.910396 -21411.729763      2.607729  6  4  2 115       
PG15   5342.802287 -21988.597773  13279.065010   -216.413476  5  2  6 108       
PG16 -18342.193003   4267.753632  18692.179799   -184.848675  8  6  8 105       
PG17  13407.948222  11899.511133 -19192.130893    298.415982  4  3  5  84       
PG18  -6975.916026 -13529.421085  21751.487271    250.308643  6  3  1  83       
PG19  14783.772032   3458.692364 -22097.342336   -129.807276  5  6  3  93       
PG20 -17933.752621 -14956.453679  12786.621876    527.248249  6  7  5  81       
PG21 -20372.326431    808.479631  17638.548945     25.675266  3  2  3  77       
PG22  -8818.021833  13433.472986 -20928.553081   -770.853413  3  5  6  78       
PG23 -18755.204858 -15604.842492  10467.779426      8.907872 13 14 11  62       
PG24  11155.180330 -20807.306173 -11991.339384    -15.904239  4  5  2  60       
PG25  -9787.373576 -17650.579872 -17636.750065     25.199585  4  4  5  97       
PG26 -25088.464590  -3537.954832   8307.928674    246.326687  7  4  3  26       
PG27 -12699.524381  10723.208352  20487.444006   -350.062733  3  5  3 112       
PG28  22957.110874  13190.091599    569.750337    697.956043  6  6  3  77       
PG29  -3346.108223 -26093.884784   3461.789153   -154.009525  7  2  5  64       
PG30  16935.367217   5918.742723  19698.699718   -265.399397  4  4  4  86       
PG31 -22467.588526   3451.887992 -14145.860514    -56.694785  5  6  5  88       
PG32 -14951.420864 -10287.947910 -19356.462070    319.673269  3  5  6 112       
EOF
